OziExplorer Track Point File Version 2.0
WGS 84
Altitude is in Feet
Reserved 3
0,2,255,OziCE Track Log File,1,,,,180
0
  32.7717313,  35.0134302,1,1077.5,41503.3696901
  32.7686480,  35.0028511,1,1195.6,41503.3867728
  32.7685508,  35.0028485,0,1195.6,41503.3869574
  32.7684396,  35.0028461,0,1192.3,41503.3869806
  32.7683114,  35.0027897,0,1185.8,41503.3870039
  32.7681878,  35.0026526,0,1179.2,41503.3870269
  32.7681103,  35.0024671,0,1172.6,41503.3870506
  32.7680843,  35.0022803,0,1169.4,41503.3870734
  32.7679664,  35.0006418,0,1136.5,41503.3872355
  32.7680175,  35.0001327,0,1133.3,41503.3872816
  32.7682077,  34.9995231,0,1116.9,41503.3873513
  32.7682100,  34.9994515,0,1116.8,41503.3874783
  32.7682300,  34.9993472,0,1107.0,41503.3876635
  32.7682456,  34.9991665,0,1103.7,41503.3876983
  32.7682337,  34.9987824,0,1097.2,41503.3877446
  32.7681903,  34.9985742,0,1090.6,41503.3877676
  32.7680902,  34.9984045,0,1087.3,41503.3877915
  32.7679795,  34.9982684,0,1074.2,41503.3878145
  32.7678231,  34.9980591,0,1067.6,41503.3878487
  32.7677799,  34.9979464,0,1061.1,41503.3878719
  32.7677401,  34.9976298,0,1051.2,41503.3879184
  32.7677125,  34.9974419,0,1044.7,41503.3879529
  32.7676719,  34.9974867,0,1051.2,41503.3880808
  32.7676473,  34.9975873,0,1054.5,41503.3883116
  32.7676601,  34.9976990,0,1061.1,41503.3883584
  32.7676562,  34.9979154,0,1070.9,41503.3884390
  32.7676180,  34.9980129,0,1074.2,41503.3884852
  32.7675371,  34.9980816,0,1064.4,41503.3885432
  32.7674496,  34.9981127,0,1061.1,41503.3885895
  32.7670084,  34.9982156,0,1057.8,41503.3887630
  32.7669170,  34.9982794,0,1067.6,41503.3888097
  32.7666747,  34.9984523,0,1077.5,41503.3889252
  32.7665865,  34.9984155,0,1074.2,41503.3889598
  32.7665957,  34.9982056,0,1067.6,41503.3889832
  32.7666867,  34.9978821,0,1061.1,41503.3890293
  32.7669865,  34.9969114,0,1028.3,41503.3891222
  32.7673708,  34.9961523,0,992.2,41503.3892032
  32.7673859,  34.9960300,0,988.9,41503.3892261
  32.7673044,  34.9959412,0,982.3,41503.3892491
  32.7671334,  34.9958536,0,982.3,41503.3892840
  32.7669262,  34.9958050,0,979.1,41503.3893188
  32.7667979,  34.9958170,0,982.3,41503.3893417
  32.7667000,  34.9958606,0,985.6,41503.3893649
  32.7666216,  34.9959336,0,985.6,41503.3893881
  32.7665529,  34.9960333,0,988.9,41503.3894228
  32.7664600,  34.9961994,0,1005.3,41503.3895154
  32.7664241,  34.9963155,0,1005.3,41503.3895732
  32.7663758,  34.9964290,0,1008.6,41503.3896428
  32.7663173,  34.9965370,0,1008.6,41503.3897469
  32.7662456,  34.9965432,0,1018.4,41503.3898277
  32.7661759,  34.9964723,0,1011.9,41503.3899089
  32.7660875,  34.9963873,0,1002.0,41503.3900128
  32.7660610,  34.9963481,0,998.7,41503.3913440
  32.7660217,  34.9963380,0,985.6,41503.3916796
  32.7659373,  34.9962536,0,975.8,41503.3917381
  32.7658562,  34.9962955,0,969.2,41503.3917953
  32.7658023,  34.9963821,0,965.9,41503.3918649
  32.7657574,  34.9964840,0,962.7,41503.3919573
  32.7656990,  34.9965906,0,952.8,41503.3920267
  32.7655740,  34.9967577,0,936.4,41503.3920732
  32.7654622,  34.9968554,0,920.0,41503.3921077
  32.7653264,  34.9969497,0,910.2,41503.3921544
  32.7652487,  34.9970541,0,900.3,41503.3921772
  32.7649367,  34.9976481,0,883.9,41503.3922813
  32.7648327,  34.9979405,0,883.9,41503.3923391
  32.7647768,  34.9980896,0,883.9,41503.3923754
  32.7646446,  34.9983648,0,883.9,41503.3924319
  32.7645908,  34.9984673,0,877.4,41503.3924552
  32.7644808,  34.9987765,0,870.8,41503.3925128
  32.7644448,  34.9988917,0,867.5,41503.3925359
  32.7643732,  34.9989763,0,864.2,41503.3925709
  32.7643091,  34.9989452,0,857.7,41503.3927328
  32.7642780,  34.9988692,0,851.1,41503.3929063
  32.7642770,  34.9987500,0,847.8,41503.3929410
  32.7642707,  34.9985894,0,844.6,41503.3929641
  32.7642315,  34.9984192,0,831.4,41503.3929988
  32.7642154,  34.9982770,0,828.2,41503.3930336
  32.7641839,  34.9981630,0,824.9,41503.3932306
  32.7641234,  34.9979268,0,815.0,41503.3932768
  32.7639064,  34.9970392,0,798.6,41503.3934270
  32.7638744,  34.9969202,0,792.1,41503.3934502
  32.7638751,  34.9967952,0,782.2,41503.3934734
  32.7638895,  34.9966393,0,775.7,41503.3935081
  32.7638443,  34.9965507,0,775.7,41503.3935661
  32.7637488,  34.9965305,0,772.4,41503.3936237
  32.7636689,  34.9966180,0,769.1,41503.3936472
  32.7636196,  34.9967265,0,769.1,41503.3936701
  32.7635330,  34.9968723,0,762.5,41503.3937050
  32.7634481,  34.9969367,0,759.3,41503.3937279
  32.7633382,  34.9969610,0,759.3,41503.3937511
  32.7631700,  34.9969922,0,752.7,41503.3937858
  32.7630537,  34.9970220,0,749.4,41503.3938206
  32.7629622,  34.9970208,0,749.4,41503.3938669
  32.7628815,  34.9969945,0,746.1,41503.3939133
  32.7627980,  34.9969584,0,742.9,41503.3941334
  32.7627191,  34.9969001,0,736.3,41503.3941797
  32.7626450,  34.9968030,0,726.5,41503.3942143
  32.7625742,  34.9966732,0,716.6,41503.3942495
  32.7625462,  34.9965316,0,710.1,41503.3942838
  32.7625413,  34.9963851,0,703.5,41503.3943187
  32.7626143,  34.9962639,0,700.2,41503.3943530
  32.7627361,  34.9962471,0,700.2,41503.3943762
  32.7628334,  34.9962474,0,703.5,41503.3943993
  32.7629626,  34.9962118,0,703.5,41503.3944342
  32.7630208,  34.9961207,0,703.5,41503.3944573
  32.7630578,  34.9959765,0,700.2,41503.3944921
  32.7630691,  34.9957746,0,693.6,41503.3945383
  32.7630827,  34.9956783,0,690.4,41503.3947123
  32.7630920,  34.9955454,0,687.1,41503.3947468
  32.7630658,  34.9954325,0,683.8,41503.3947698
  32.7629881,  34.9953180,0,677.2,41503.3947937
  32.7628876,  34.9952172,0,674.0,41503.3948163
  32.7627180,  34.9951073,0,667.4,41503.3948522
  32.7625077,  34.9950343,0,660.8,41503.3948859
  32.7620313,  34.9948876,0,651.0,41503.3949551
  32.7618579,  34.9947546,0,647.7,41503.3949897
  32.7617748,  34.9946290,0,644.4,41503.3950129
  32.7617345,  34.9944847,0,641.2,41503.3950360
  32.7617054,  34.9942057,0,631.3,41503.3950823
  32.7616891,  34.9940802,0,624.8,41503.3951635
  32.7616483,  34.9937653,0,618.2,41503.3952459
  32.7615980,  34.9934180,0,601.8,41503.3953031
  32.7615726,  34.9930218,0,598.5,41503.3953602
  32.7615135,  34.9929097,0,595.2,41503.3953956
  32.7614201,  34.9928298,0,585.4,41503.3954530
  32.7613420,  34.9927811,0,585.4,41503.3955111
  32.7609739,  34.9928802,0,575.5,41503.3956380
  32.7608501,  34.9928620,0,572.3,41503.3956612
  32.7607608,  34.9928479,0,569.0,41503.3956848
  32.7606704,  34.9928748,0,569.0,41503.3957073
  32.7603955,  34.9929955,0,555.9,41503.3958117
  32.7600625,  34.9930480,0,542.7,41503.3959279
  32.7599444,  34.9930254,0,529.6,41503.3959622
  32.7598640,  34.9929766,0,526.3,41503.3959967
  32.7597963,  34.9928833,0,519.8,41503.3960430
  32.7597557,  34.9927626,0,516.5,41503.3960893
  32.7597490,  34.9926387,0,516.5,41503.3961357
  32.7597510,  34.9924380,0,506.7,41503.3962171
  32.7597811,  34.9923339,0,506.7,41503.3962401
  32.7598477,  34.9922194,0,506.6,41503.3962629
  32.7600268,  34.9919025,0,503.4,41503.3963329
  32.7601412,  34.9917106,0,496.8,41503.3963786
  32.7601660,  34.9915620,0,493.5,41503.3964133
  32.7600828,  34.9915132,0,493.5,41503.3964365
  32.7598968,  34.9914826,0,487.0,41503.3964830
  32.7598024,  34.9914738,0,490.2,41503.3965075
  32.7597136,  34.9914512,0,490.2,41503.3965291
  32.7595952,  34.9914529,0,487.0,41503.3965641
  32.7594189,  34.9914275,0,473.8,41503.3966218
  32.7593492,  34.9913101,0,464.0,41503.3966565
  32.7593615,  34.9911838,0,457.4,41503.3966800
  32.7594071,  34.9910735,0,454.2,41503.3967027
  32.7594679,  34.9909916,0,450.9,41503.3967262
  32.7596181,  34.9908481,0,444.3,41503.3967842
  32.7597108,  34.9907468,0,441.0,41503.3968302
  32.7597208,  34.9906261,0,434.5,41503.3968648
  32.7597124,  34.9905095,0,424.6,41503.3968998
  32.7596582,  34.9904035,0,418.1,41503.3969343
  32.7595887,  34.9903036,0,411.5,41503.3969691
  32.7594977,  34.9902168,0,408.2,41503.3970036
  32.7593993,  34.9902283,0,404.9,41503.3970503
  32.7593297,  34.9902996,0,401.7,41503.3970962
  32.7592062,  34.9904933,0,401.7,41503.3972004
  32.7589236,  34.9910981,0,401.7,41503.3977561
  32.7588603,  34.9913348,0,401.7,41503.3978487
  32.7588385,  34.9914696,0,404.9,41503.3979064
  32.7587654,  34.9916102,0,404.9,41503.3979759
  32.7586892,  34.9917706,0,401.7,41503.3980684
  32.7586658,  34.9918792,0,398.4,41503.3981032
  32.7586655,  34.9919925,0,398.4,41503.3981381
  32.7586776,  34.9921777,0,398.4,41503.3981958
  32.7587114,  34.9923027,0,398.4,41503.3982420
  32.7587794,  34.9925371,0,398.4,41503.3986126
  32.7587960,  34.9927347,0,395.1,41503.3986590
  32.7588030,  34.9928679,0,395.1,41503.3987051
  32.7588665,  34.9929878,0,395.1,41503.3987399
  32.7588936,  34.9929775,0,398.4,41503.3990176
  32.7588752,  34.9929416,0,408.2,41503.3991448
  32.7588708,  34.9929929,0,395.1,41503.3995731
  32.7588461,  34.9929641,0,395.1,41503.3998514
  32.7587860,  34.9928630,0,391.8,41503.3998856
  32.7587264,  34.9927607,0,388.5,41503.3999203
  32.7586524,  34.9926765,0,382.0,41503.3999550
  32.7585806,  34.9925795,0,382.0,41503.3999782
  32.7582731,  34.9921818,0,372.1,41503.4000592
  32.7582178,  34.9920717,0,372.1,41503.4000824
  32.7581743,  34.9919783,0,365.6,41503.4001058
  32.7581674,  34.9918380,0,365.6,41503.4001404
  32.7581727,  34.9915949,0,359.0,41503.4001984
  32.7582086,  34.9912508,0,345.9,41503.4002676
  32.7582551,  34.9911337,0,342.6,41503.4002907
  32.7583716,  34.9907742,0,339.3,41503.4004306
  32.7583889,  34.9906592,0,336.1,41503.4004880
  32.7584176,  34.9905569,0,332.8,41503.4005338
  32.7585285,  34.9902720,0,329.5,41503.4006725
  32.7585480,  34.9903000,0,329.5,41503.4017256
  32.7585324,  34.9902873,0,319.6,41503.4025822
  32.7585793,  34.9901507,0,309.8,41503.4026400
  32.7585966,  34.9900433,0,306.5,41503.4026747
  32.7585579,  34.9899521,0,303.2,41503.4027210
  32.7584566,  34.9898881,0,300.0,41503.4027673
  32.7583928,  34.9898022,0,306.5,41503.4028368
  32.7583797,  34.9897134,0,316.4,41503.4030453
  32.7583326,  34.9896509,0,316.4,41503.4032651
  32.7583302,  34.9895335,0,326.2,41503.4037627
  32.7583746,  34.9894657,0,306.5,41503.4038785
  32.7585843,  34.9892909,0,303.2,41503.4039364
  32.7586752,  34.9891915,0,300.0,41503.4039595
  32.7587624,  34.9890712,0,303.2,41503.4039829
  32.7591024,  34.9885353,0,309.8,41503.4041109
  32.7591373,  34.9884034,0,309.8,41503.4041447
  32.7591812,  34.9883064,0,313.1,41503.4041794
  32.7595209,  34.9877437,0,316.4,41503.4043647
  32.7595923,  34.9875568,0,306.5,41503.4044111
  32.7597526,  34.9872454,0,306.5,41503.4044919
  32.7598138,  34.9871209,0,303.2,41503.4045266
  32.7599350,  34.9868720,0,293.4,41503.4045960
  32.7600715,  34.9865468,0,286.8,41503.4046772
  32.7601704,  34.9862455,0,280.3,41503.4047351
  32.7602017,  34.9861363,0,277.0,41503.4047581
  32.7601994,  34.9860147,0,273.7,41503.4047929
  32.7601757,  34.9852983,0,273.7,41503.4049319
  32.7601754,  34.9850272,0,267.1,41503.4049779
  32.7601058,  34.9843683,0,257.3,41503.4051181
  32.7601134,  34.9842503,0,254.0,41503.4051519
  32.7601093,  34.9840963,0,250.7,41503.4051980
  32.7601317,  34.9837802,0,247.4,41503.4052907
  32.7601598,  34.9835138,0,237.6,41503.4053484
  32.7601478,  34.9833587,0,237.6,41503.4053946
  32.7601542,  34.9832263,0,234.3,41503.4054413
  32.7601616,  34.9830984,0,237.6,41503.4054877
  32.7601302,  34.9829897,0,237.6,41503.4055335
  32.7600456,  34.9829493,0,231.0,41503.4055799
  32.7600152,  34.9829045,0,237.6,41503.4058344
  32.7599374,  34.9828038,0,240.9,41503.4059271
  32.7598576,  34.9827787,0,244.2,41503.4060777
  32.7598135,  34.9827344,0,257.3,41503.4062975
  32.7598293,  34.9826286,0,247.4,41503.4064364
  32.7598511,  34.9825212,0,247.4,41503.4065174
  32.7598608,  34.9824114,0,250.7,41503.4065983
  32.7598608,  34.9822845,0,254.0,41503.4067141
  32.7598798,  34.9821593,0,254.0,41503.4067489
  32.7598695,  34.9820470,0,254.0,41503.4067836
  32.7598619,  34.9819167,0,254.0,41503.4068531
  32.7598467,  34.9818432,0,267.1,41503.4070730
  32.7598174,  34.9817961,0,247.4,41503.4074548
  32.7597956,  34.9817014,0,263.8,41503.4076747
  32.7597586,  34.9816076,0,273.7,41503.4077906
  32.7596922,  34.9815586,0,270.4,41503.4079177
  32.7596449,  34.9814701,0,280.2,41503.4080451
  32.7595622,  34.9814268,0,293.4,41503.4081612
  32.7594924,  34.9813894,0,293.4,41503.4083816
  32.7594144,  34.9813043,0,293.4,41503.4088323
  32.7593432,  34.9812786,0,290.1,41503.4089131
  32.7593364,  34.9813684,0,299.9,41503.4091678
  32.7593397,  34.9814405,0,309.8,41503.4092722
  32.7593228,  34.9815439,0,316.3,41503.4094223
  32.7592615,  34.9816182,0,313.1,41503.4095267
  32.7592133,  34.9816936,0,313.1,41503.4096538
  32.7591658,  34.9817776,0,326.2,41503.4098045
  32.7591540,  34.9818734,0,332.7,41503.4099317
  32.7591364,  34.9819675,0,336.0,41503.4100474
  32.7590871,  34.9820667,0,339.3,41503.4101634
  32.7590601,  34.9821608,0,345.9,41503.4103715
  32.7590239,  34.9822542,0,342.6,41503.4105800
  32.7589847,  34.9823260,0,352.4,41503.4108461
  32.7589405,  34.9824184,0,362.3,41503.4110080
  32.7589164,  34.9825189,0,375.4,41503.4112163
  32.7588777,  34.9826411,0,388.5,41503.4114015
  32.7588756,  34.9827516,0,395.1,41503.4115753
  32.7588995,  34.9828575,0,391.8,41503.4117141
  32.7588953,  34.9829775,0,401.7,41503.4119225
  32.7588788,  34.9830740,0,414.8,41503.4121772
  32.7588296,  34.9831603,0,414.8,41503.4123276
  32.7588269,  34.9832637,0,424.6,41503.4124779
  32.7587795,  34.9833250,0,427.9,41503.4130219
  32.7587899,  34.9834627,0,444.3,41503.4137395
  32.7587630,  34.9835573,0,460.7,41503.4139478
  32.7587011,  34.9836330,0,464.0,41503.4141909
  32.7586419,  34.9837072,0,467.3,41503.4143878
  32.7586523,  34.9838000,0,473.8,41503.4146191
  32.7586475,  34.9838771,0,483.7,41503.4150128
  32.7586002,  34.9839478,0,483.7,41503.4152560
  32.7585307,  34.9840268,0,490.2,41503.4153831
  32.7584457,  34.9840625,0,493.5,41503.4156145
  32.7584033,  34.9841633,0,496.8,41503.4156609
  32.7583797,  34.9842839,0,496.8,41503.4157186
  32.7583708,  34.9844175,0,506.6,41503.4158000
  32.7583850,  34.9845157,0,506.6,41503.4160544
  32.7583661,  34.9846210,0,509.9,41503.4161239
  32.7583310,  34.9847399,0,513.2,41503.4161935
  32.7583004,  34.9848885,0,509.9,41503.4162741
  32.7583015,  34.9850217,0,513.2,41503.4163448
  32.7583265,  34.9850967,0,516.5,41503.4164363
  32.7583099,  34.9851776,0,523.1,41503.4165752
  32.7582789,  34.9851112,0,519.8,41503.4168181
  32.7582809,  34.9850219,0,519.8,41503.4170843
  32.7582325,  34.9850360,0,519.8,41503.4174663
  32.7581810,  34.9851249,0,509.9,41503.4175940
  32.7581644,  34.9852495,0,516.5,41503.4176517
  32.7581580,  34.9853972,0,516.5,41503.4177094
  32.7581610,  34.9857846,0,509.9,41503.4178253
  32.7581680,  34.9859119,0,513.2,41503.4178715
  32.7581660,  34.9860662,0,506.7,41503.4179178
  32.7581376,  34.9863987,0,509.9,41503.4179757
  32.7581149,  34.9866291,0,509.9,41503.4180220
  32.7580800,  34.9867359,0,509.9,41503.4180684
  32.7580687,  34.9868011,0,516.5,41503.4181724
  32.7580395,  34.9869210,0,513.2,41503.4182303
  32.7579873,  34.9870630,0,509.9,41503.4182884
  32.7579837,  34.9871484,0,503.4,41503.4183691
  32.7579292,  34.9872153,0,490.2,41503.4187511
  32.7578917,  34.9873157,0,496.8,41503.4187975
  32.7577918,  34.9876050,0,496.8,41503.4189132
  32.7577508,  34.9877233,0,493.5,41503.4189595
  32.7577024,  34.9878145,0,500.1,41503.4190056
  32.7576517,  34.9878466,0,490.3,41503.4192257
  32.7576104,  34.9879419,0,483.7,41503.4195035
  32.7575709,  34.9880410,0,483.7,41503.4195498
  32.7575070,  34.9881158,0,487.0,41503.4195961
  32.7574807,  34.9881717,0,500.1,41503.4197697
  32.7574487,  34.9882581,0,503.4,41503.4199548
  32.7573858,  34.9883488,0,503.4,41503.4201053
  32.7573043,  34.9883848,0,506.7,41503.4203022
  32.7572252,  34.9884414,0,509.9,41503.4205112
  32.7571525,  34.9885017,0,519.8,41503.4207070
  32.7571025,  34.9885715,0,532.9,41503.4209500
  32.7570837,  34.9886737,0,539.5,41503.4211470
  32.7570287,  34.9887262,0,555.9,41503.4218070
  32.7569881,  34.9888139,0,549.3,41503.4220267
  32.7569347,  34.9889055,0,546.0,41503.4221886
  32.7568713,  34.9889715,0,546.0,41503.4223738
  32.7568851,  34.9890289,0,559.2,41503.4229177
  32.7568992,  34.9891237,0,552.6,41503.4231027
  32.7569317,  34.9890460,0,549.3,41503.4232418
  32.7568505,  34.9890249,0,546.0,41503.4233806
  32.7568690,  34.9890165,0,555.9,41503.4237509
  32.7568591,  34.9891164,0,562.4,41503.4239363
  32.7568361,  34.9892313,0,562.4,41503.4240634
  32.7568077,  34.9892886,0,575.6,41503.4243990
  32.7567750,  34.9893843,0,578.8,41503.4245845
  32.7567378,  34.9894874,0,588.7,41503.4247347
  32.7566969,  34.9895831,0,588.7,41503.4249317
  32.7566473,  34.9896619,0,598.5,41503.4250822
  32.7565911,  34.9897420,0,601.8,41503.4252325
  32.7565860,  34.9897427,0,608.4,41503.4264826
  32.7566121,  34.9897231,0,624.8,41503.4267835
  32.7563925,  34.9897455,0,624.8,41503.4289132
  32.7564602,  34.9897122,0,631.3,41503.4289829
  32.7565449,  34.9897225,0,637.9,41503.4291359
  32.7566198,  34.9897620,0,644.5,41503.4292952
  32.7566618,  34.9897837,0,647.7,41503.4300827
  32.7566944,  34.9897871,0,657.6,41503.4304525
  32.7567460,  34.9897936,0,657.6,41503.4306028
  32.7567369,  34.9897609,1,654.3,41503.4322004
  32.7566834,  34.9897433,0,641.2,41503.4423279
  32.7566542,  34.9897124,0,628.1,41503.4428835
  32.7566244,  34.9897215,0,624.8,41503.4436583
  32.7565764,  34.9896759,1,618.2,41503.4502752
  32.7568133,  34.9892047,0,555.9,41503.4503226
  32.7568436,  34.9892956,0,562.4,41503.4504486
  32.7569014,  34.9893660,0,549.3,41503.4506813
  32.7569619,  34.9894279,0,539.5,41503.4509352
  32.7570209,  34.9894699,0,526.4,41503.4511894
  32.7570670,  34.9894886,0,523.1,41503.4514440
  32.7571238,  34.9895275,0,513.2,41503.4516523
  32.7571973,  34.9895060,0,500.1,41503.4519185
  32.7572619,  34.9895586,0,483.7,41503.4521963
  32.7573316,  34.9895791,0,470.6,41503.4524512
  32.7573732,  34.9896489,0,464.0,41503.4527520
  32.7574389,  34.9896745,0,447.6,41503.4530184
  32.7575191,  34.9896506,0,427.9,41503.4532381
  32.7575568,  34.9896771,0,421.4,41503.4534813
  32.7576353,  34.9896728,0,414.8,41503.4536897
  32.7577126,  34.9896583,0,405.0,41503.4538979
  32.7577562,  34.9897310,0,391.8,41503.4541175
  32.7578179,  34.9897515,0,382.0,41503.4543028
  32.7578859,  34.9897736,0,372.1,41503.4545810
  32.7579510,  34.9897782,0,359.0,41503.4549397
  32.7580136,  34.9897432,0,342.6,41503.4552635
  32.7580776,  34.9896751,0,339.3,41503.4554836
  32.7581467,  34.9896029,0,329.5,41503.4555529
  32.7582085,  34.9895148,0,326.2,41503.4556804
  32.7582883,  34.9894374,0,319.6,41503.4557149
  32.7583746,  34.9894053,0,316.4,41503.4557613
  32.7584692,  34.9893709,0,316.4,41503.4558422
  32.7585366,  34.9892807,0,313.1,41503.4559117
  32.7586088,  34.9892138,0,306.5,41503.4559929
  32.7586563,  34.9891218,0,303.2,41503.4560509
  32.7586572,  34.9891889,0,300.0,41503.4561778
  32.7585756,  34.9892769,0,309.8,41503.4562470
  32.7584856,  34.9894144,0,313.1,41503.4563398
  32.7583969,  34.9894754,0,319.6,41503.4564092
  32.7583229,  34.9895364,0,313.1,41503.4564784
  32.7583602,  34.9896352,0,316.4,41503.4565366
  32.7585690,  34.9899484,0,296.7,41503.4566290
  32.7586048,  34.9900449,0,293.4,41503.4566984
  32.7586009,  34.9901560,0,303.2,41503.4567563
  32.7585745,  34.9903343,0,313.1,41503.4568836
  32.7649700,  34.9976389,1,870.8,41503.4743368
  32.7665698,  34.9984984,1,1090.6,41503.4809530
  32.7666162,  34.9985128,0,1077.5,41503.4812309
  32.7715190,  35.0144166,1,608.3,41503.5496349
  32.7715741,  35.0143573,0,657.5,41503.5499123
  32.7718045,  35.0136704,0,860.9,41503.5499353
  32.7718264,  35.0136190,0,913.4,41503.5500164
  32.7718219,  35.0137042,0,933.1,41503.5501669
