OziExplorer Track Point File Version 2.0
WGS 84
Altitude is in Feet
Reserved 3
0,2,255,OziCE Track Log File,1,,,,180
0
  32.5311039,  34.9799551,1,196.6,41517.2118806
  32.5310227,  34.9799855,0,167.1,41517.2119616
  32.5310831,  34.9800036,0,153.9,41517.2120773
  32.5311361,  34.9799197,0,137.5,41517.2125872
  32.5312288,  34.9799204,0,131.0,41517.2126676
  32.5311665,  34.9799069,0,124.4,41517.2127264
  32.5310916,  34.9799270,0,124.4,41517.2127834
  32.5311336,  34.9799572,0,124.4,41517.2128418
  32.5311211,  34.9799602,0,117.9,41517.2153876
  32.5311303,  34.9800708,0,114.6,41517.2156075
  32.5311819,  34.9799907,0,111.3,41517.2156885
  32.5312740,  34.9800168,0,108.0,41517.2157580
  32.5320801,  34.9796919,0,104.7,41517.2160705
  32.5322203,  34.9796160,0,101.4,41517.2161524
  32.5322233,  34.9795011,0,101.4,41517.2161983
  32.5322002,  34.9795427,0,101.4,41517.2162564
  32.5321815,  34.9796352,0,101.4,41517.2163136
  32.5320904,  34.9796684,0,101.4,41517.2163721
  32.5320013,  34.9796987,0,101.4,41517.2164409
  32.5320534,  34.9796831,0,101.4,41517.2164873
  32.5320291,  34.9795684,0,98.2,41517.2165459
  32.5319309,  34.9793808,0,98.2,41517.2166147
  32.5316777,  34.9788542,0,98.2,41517.2167765
  32.5315914,  34.9785721,0,98.2,41517.2168577
  32.5314176,  34.9782714,0,98.2,41517.2169501
  32.5309271,  34.9775095,0,91.6,41517.2171938
  32.5306876,  34.9768601,0,88.3,41517.2173556
  32.5306566,  34.9766728,0,88.3,41517.2174019
  32.5306689,  34.9764142,0,88.3,41517.2174715
  32.5307267,  34.9761101,0,85.0,41517.2175527
  32.5307632,  34.9758465,0,88.3,41517.2176214
  32.5307307,  34.9757121,0,85.0,41517.2176571
  32.5306412,  34.9755526,0,81.8,41517.2177024
  32.5305510,  34.9754502,0,81.8,41517.2177375
  32.5299984,  34.9748207,0,78.5,41517.2179461
  32.5299063,  34.9746356,0,78.5,41517.2179918
  32.5298303,  34.9743491,0,78.5,41517.2180613
  32.5297181,  34.9738682,0,78.5,41517.2181771
  32.5296138,  34.9736530,0,78.5,41517.2182346
  32.5295163,  34.9735050,0,81.8,41517.2182812
  32.5293956,  34.9733770,0,81.8,41517.2183272
  32.5291188,  34.9730692,0,81.8,41517.2184313
  32.5289171,  34.9727672,0,81.8,41517.2185240
  32.5287644,  34.9724188,0,78.5,41517.2186168
  32.5286069,  34.9719938,0,75.2,41517.2187216
  32.5285602,  34.9718971,0,75.2,41517.2187438
  32.5285053,  34.9718064,0,71.9,41517.2187670
  32.5283988,  34.9716437,0,78.5,41517.2188133
  32.5283246,  34.9715800,0,78.5,41517.2188364
  32.5281649,  34.9714705,0,75.2,41517.2188828
  32.5280832,  34.9714158,0,75.2,41517.2189058
  32.5279956,  34.9713656,0,71.9,41517.2189293
  32.5278571,  34.9712624,0,78.5,41517.2189753
  32.5277077,  34.9711487,0,81.8,41517.2190215
  32.5275421,  34.9709919,0,81.8,41517.2190795
  32.5273458,  34.9707921,0,88.3,41517.2191497
  32.5272775,  34.9707207,0,91.6,41517.2191720
  32.5272248,  34.9706315,0,91.6,41517.2191954
  32.5271520,  34.9704415,0,85.1,41517.2192416
  32.5271095,  34.9703471,0,81.8,41517.2192648
  32.5270567,  34.9702028,0,78.5,41517.2192997
  32.5270071,  34.9700558,0,78.5,41517.2193341
  32.5268616,  34.9697746,0,78.5,41517.2194037
  32.5267805,  34.9696432,0,75.2,41517.2194382
  32.5267262,  34.9695483,0,71.9,41517.2194615
  32.5265412,  34.9692455,0,71.9,41517.2195427
  32.5265088,  34.9691397,0,71.9,41517.2195659
  32.5264738,  34.9689323,0,71.9,41517.2196120
  32.5264882,  34.9685416,0,75.2,41517.2196932
  32.5265015,  34.9683880,0,71.9,41517.2197278
  32.5265219,  34.9682776,0,75.2,41517.2197510
  32.5265832,  34.9681382,0,81.8,41517.2197857
  32.5267055,  34.9678100,0,81.8,41517.2198666
  32.5267406,  34.9676451,0,78.5,41517.2199014
  32.5267470,  34.9673743,0,75.2,41517.2199594
  32.5267079,  34.9671518,0,75.2,41517.2200059
  32.5266692,  34.9669348,0,75.2,41517.2200521
  32.5266586,  34.9668196,0,81.8,41517.2200750
  32.5266591,  34.9666459,0,85.1,41517.2201100
  32.5266815,  34.9665297,0,81.8,41517.2201328
  32.5266909,  34.9664209,0,81.8,41517.2201562
  32.5266718,  34.9662057,0,68.6,41517.2202023
  32.5266052,  34.9658747,0,68.6,41517.2202719
  32.5265668,  34.9657104,0,68.6,41517.2203066
  32.5265393,  34.9655511,0,71.9,41517.2203413
  32.5265063,  34.9653952,0,71.9,41517.2203765
  32.5264718,  34.9652802,0,71.9,41517.2203995
  32.5264073,  34.9649960,0,71.9,41517.2204570
  32.5263692,  34.9645439,0,65.4,41517.2205495
  32.5263484,  34.9643593,0,62.1,41517.2205843
  32.5263410,  34.9641866,0,58.8,41517.2206193
  32.5263106,  34.9640518,0,52.2,41517.2206539
  32.5262658,  34.9638880,0,55.5,41517.2206885
  32.5262052,  34.9636682,0,58.8,41517.2207348
  32.5261613,  34.9635581,0,62.1,41517.2207579
  32.5261162,  34.9634553,0,65.4,41517.2207809
  32.5260650,  34.9633658,0,62.1,41517.2208041
  32.5260010,  34.9632210,0,62.1,41517.2208389
  32.5259086,  34.9630097,0,62.1,41517.2208853
  32.5258458,  34.9628474,0,65.4,41517.2209198
  32.5257698,  34.9626697,0,62.1,41517.2209662
  32.5256716,  34.9624296,0,62.1,41517.2210239
  32.5255867,  34.9623134,0,65.4,41517.2210588
  32.5254997,  34.9622604,0,68.6,41517.2210820
  32.5252808,  34.9621396,0,68.6,41517.2211511
  32.5250463,  34.9620391,0,71.9,41517.2212094
  32.5249652,  34.9619798,0,71.9,41517.2212326
  32.5248486,  34.9618644,0,65.4,41517.2212671
  32.5247698,  34.9617356,0,68.7,41517.2213016
  32.5246581,  34.9614315,0,71.9,41517.2213713
  32.5246041,  34.9612285,0,68.7,41517.2214181
  32.5244297,  34.9607108,0,65.4,41517.2215334
  32.5243514,  34.9605703,0,62.1,41517.2215682
  32.5241108,  34.9602334,0,58.8,41517.2216607
  32.5240499,  34.9601108,0,62.1,41517.2216952
  32.5239882,  34.9600139,0,58.8,41517.2217184
  32.5238744,  34.9598412,0,62.1,41517.2217647
  32.5238404,  34.9597265,0,62.1,41517.2217880
  32.5237983,  34.9595674,0,62.1,41517.2218227
  32.5238025,  34.9594419,0,65.4,41517.2218458
  32.5238225,  34.9593342,0,68.7,41517.2218690
  32.5239622,  34.9589791,0,62.1,41517.2219501
  32.5240061,  34.9588706,0,62.1,41517.2219731
  32.5240385,  34.9587585,0,62.1,41517.2219963
  32.5240520,  34.9586271,0,62.1,41517.2220195
  32.5240545,  34.9584599,0,55.5,41517.2220542
  32.5240373,  34.9582404,0,52.2,41517.2221005
  32.5239951,  34.9580377,0,52.2,41517.2221469
  32.5239558,  34.9578709,0,55.5,41517.2221815
  32.5238483,  34.9571157,0,52.2,41517.2223322
  32.5238644,  34.9568968,0,52.2,41517.2223782
  32.5238564,  34.9567023,0,52.2,41517.2224245
  32.5238473,  34.9564857,0,52.2,41517.2224824
  32.5238475,  34.9564637,0,49.0,41517.2227720
  32.5238112,  34.9564010,0,42.4,41517.2234083
  32.5238134,  34.9562916,0,32.6,41517.2234778
  32.5239221,  34.9562351,0,39.1,41517.2235241
  32.5240145,  34.9562266,0,45.7,41517.2235588
  32.5240940,  34.9561359,0,45.7,41517.2236051
  32.5241574,  34.9559631,0,49.0,41517.2236511
  32.5241805,  34.9558239,0,45.7,41517.2236745
  32.5242463,  34.9555637,0,45.7,41517.2237326
  32.5242755,  34.9554370,0,42.4,41517.2237558
  32.5243316,  34.9552207,0,42.4,41517.2238018
  32.5243564,  34.9551023,0,45.7,41517.2238249
  32.5243856,  34.9549600,0,42.4,41517.2238596
  32.5244310,  34.9547926,0,45.7,41517.2238942
  32.5244758,  34.9546013,0,52.2,41517.2239291
  32.5245712,  34.9542402,0,49.0,41517.2240101
  32.5246771,  34.9542579,0,55.5,41517.2240448
  32.5247860,  34.9543181,0,58.8,41517.2240795
  32.5254418,  34.9547129,0,65.4,41517.2242532
  32.5255317,  34.9547738,0,65.4,41517.2242763
  32.5262318,  34.9552297,0,62.1,41517.2244500
  32.5263361,  34.9552940,0,58.8,41517.2244729
  32.5264313,  34.9553665,0,58.8,41517.2244963
  32.5265348,  34.9554335,0,62.1,41517.2245195
  32.5268338,  34.9556303,0,62.1,41517.2245889
  32.5273700,  34.9558566,0,55.5,41517.2247162
  32.5281411,  34.9559753,0,55.5,41517.2248898
  32.5284063,  34.9559949,0,55.5,41517.2249478
  32.5285124,  34.9560114,0,58.8,41517.2249708
  32.5288094,  34.9560335,0,58.8,41517.2250403
  32.5289060,  34.9560529,0,55.5,41517.2250634
  32.5292777,  34.9561281,0,52.2,41517.2251445
  32.5293774,  34.9561478,0,52.2,41517.2251676
  32.5295697,  34.9561740,0,48.9,41517.2252139
  32.5296610,  34.9561661,0,48.9,41517.2252602
  32.5296399,  34.9560957,0,55.5,41517.2254454
  32.5296407,  34.9559885,0,52.2,41517.2260009
  32.5296627,  34.9559620,0,58.8,41517.2260932
  32.5296318,  34.9560867,0,58.8,41517.2261399
  32.5295508,  34.9561583,0,55.5,41517.2261861
  32.5294590,  34.9561063,0,52.2,41517.2262323
  32.5294424,  34.9560026,0,52.2,41517.2262671
  32.5294572,  34.9558589,0,48.9,41517.2263019
  32.5294891,  34.9556093,0,48.9,41517.2263481
  32.5295121,  34.9554351,0,55.5,41517.2263830
  32.5295188,  34.9552634,0,48.9,41517.2264176
  32.5295272,  34.9551442,0,48.9,41517.2264407
  32.5295469,  34.9548107,0,45.6,41517.2265101
  32.5296090,  34.9546019,0,42.4,41517.2265565
  32.5296930,  34.9543724,0,45.6,41517.2266026
  32.5297378,  34.9542517,0,42.4,41517.2266259
  32.5298775,  34.9538701,0,42.4,41517.2267069
  32.5299323,  34.9537051,0,45.6,41517.2267417
  32.5299937,  34.9535414,0,45.6,41517.2267764
  32.5302501,  34.9528438,0,48.9,41517.2269154
  32.5302792,  34.9527301,0,45.6,41517.2269383
  32.5303068,  34.9526154,0,45.6,41517.2269616
  32.5303499,  34.9524541,0,45.6,41517.2269964
  32.5304155,  34.9522121,0,45.6,41517.2270426
  32.5304782,  34.9519718,0,39.1,41517.2270889
  32.5304865,  34.9518467,0,42.3,41517.2271120
  32.5305199,  34.9517367,0,42.3,41517.2271352
  32.5305589,  34.9515600,0,42.3,41517.2271699
  32.5306113,  34.9513959,0,39.1,41517.2272053
  32.5306322,  34.9512738,0,35.8,41517.2272278
  32.5306482,  34.9511486,0,32.5,41517.2272510
  32.5306779,  34.9510323,0,35.8,41517.2272741
  32.5307219,  34.9507937,0,35.8,41517.2273204
  32.5307380,  34.9506846,0,39.1,41517.2273436
  32.5307922,  34.9504475,0,39.1,41517.2274012
  32.5308041,  34.9502834,0,39.1,41517.2274361
  32.5308191,  34.9501481,0,39.1,41517.2274593
  32.5308372,  34.9499880,0,39.1,41517.2274940
  32.5308650,  34.9498169,0,45.6,41517.2275289
  32.5308822,  34.9497085,0,45.6,41517.2275519
  32.5309329,  34.9494249,0,45.6,41517.2276096
  32.5310591,  34.9488934,0,42.3,41517.2277141
  32.5310840,  34.9487762,0,45.6,41517.2277371
  32.5311217,  34.9486646,0,39.1,41517.2277605
  32.5311756,  34.9484320,0,39.1,41517.2278065
  32.5312455,  34.9482111,0,35.8,41517.2278527
  32.5312940,  34.9481125,0,39.1,41517.2278760
  32.5313288,  34.9479941,0,39.1,41517.2278991
  32.5313661,  34.9478760,0,35.8,41517.2279223
  32.5314053,  34.9477780,0,39.0,41517.2279454
  32.5314588,  34.9476180,0,42.3,41517.2279801
  32.5314947,  34.9475109,0,42.3,41517.2280034
  32.5315335,  34.9473365,0,35.8,41517.2280380
  32.5315631,  34.9472331,0,39.0,41517.2280611
  32.5316214,  34.9470080,0,45.6,41517.2281074
  32.5316425,  34.9468404,0,45.6,41517.2281421
  32.5316134,  34.9467352,0,45.6,41517.2281650
  32.5315435,  34.9465924,0,45.6,41517.2281998
  32.5313725,  34.9463515,0,42.3,41517.2282694
  32.5311702,  34.9461362,0,39.0,41517.2283389
  32.5310367,  34.9459921,0,42.3,41517.2283852
  32.5309268,  34.9458498,0,35.8,41517.2284430
  32.5309850,  34.9458042,0,39.0,41517.2285356
  32.5311029,  34.9458085,0,42.3,41517.2285820
  32.5311960,  34.9457822,0,45.6,41517.2286167
  32.5313142,  34.9457279,0,48.9,41517.2286630
  32.5313726,  34.9456098,0,45.6,41517.2287093
  32.5314390,  34.9456769,0,48.9,41517.2287556
  32.5313781,  34.9457717,0,45.6,41517.2288019
  32.5313033,  34.9457261,0,52.2,41517.2288713
  32.5313546,  34.9456326,0,48.9,41517.2289870
  32.5314018,  34.9456825,0,45.6,41517.2290333
  32.5314004,  34.9455741,0,45.6,41517.2290797
  32.5314942,  34.9454167,0,48.9,41517.2291258
  32.5315813,  34.9453453,0,55.4,41517.2291607
  32.5317722,  34.9452268,0,58.7,41517.2292418
  32.5318625,  34.9452204,0,62.0,41517.2292764
  32.5319709,  34.9452635,0,65.3,41517.2293226
  32.5320555,  34.9453573,0,68.6,41517.2293692
  32.5321289,  34.9454561,0,62.0,41517.2294151
  32.5322088,  34.9455476,0,68.6,41517.2294615
  32.5326233,  34.9460461,0,81.7,41517.2297163
  32.5328055,  34.9463062,0,85.0,41517.2298433
  32.5331201,  34.9466398,0,88.2,41517.2299825
  32.5335627,  34.9469777,0,88.2,41517.2301339
  32.5336843,  34.9470186,0,88.2,41517.2301678
  32.5338063,  34.9470223,0,91.5,41517.2302025
  32.5339670,  34.9469831,0,91.5,41517.2302602
  32.5341184,  34.9469362,0,98.1,41517.2303414
  32.5341999,  34.9469150,0,98.1,41517.2304230
  32.5341430,  34.9469921,0,94.8,41517.2304802
  32.5341971,  34.9471133,0,94.8,41517.2305148
  32.5342492,  34.9472040,0,91.5,41517.2305612
  32.5342396,  34.9473009,0,85.0,41517.2306428
  32.5341538,  34.9473567,0,81.7,41517.2306893
  32.5341678,  34.9474578,0,81.7,41517.2307464
  32.5342747,  34.9476312,0,75.1,41517.2307936
  32.5343480,  34.9477564,0,75.1,41517.2308278
  32.5343957,  34.9478621,0,75.1,41517.2308621
  32.5344689,  34.9479371,0,78.4,41517.2309432
  32.5345320,  34.9480153,0,75.1,41517.2310014
  32.5345812,  34.9480925,0,65.3,41517.2311052
  32.5346165,  34.9480691,0,68.6,41517.2316838
  32.5345377,  34.9480056,0,62.0,41517.2317764
  32.5344370,  34.9480018,0,65.3,41517.2318348
  32.5343825,  34.9479321,0,71.8,41517.2318815
  32.5343472,  34.9478005,0,75.1,41517.2319386
  32.5342885,  34.9476580,0,78.4,41517.2319971
  32.5341768,  34.9474302,0,85.0,41517.2321011
  32.5341796,  34.9473207,0,85.0,41517.2321704
  32.5342724,  34.9472685,0,81.7,41517.2322278
  32.5342620,  34.9471716,0,85.0,41517.2322973
  32.5341511,  34.9470004,0,94.8,41517.2323899
  32.5341709,  34.9469080,0,98.1,41517.2324367
  32.5342741,  34.9468658,0,98.1,41517.2325059
  32.5343641,  34.9468415,0,101.4,41517.2325637
  32.5345742,  34.9467971,0,111.2,41517.2327034
  32.5348337,  34.9467622,0,117.8,41517.2328645
  32.5349255,  34.9467584,0,127.6,41517.2329222
  32.5350324,  34.9467516,0,130.9,41517.2329918
  32.5351720,  34.9467238,0,121.0,41517.2330727
  32.5352630,  34.9466816,0,127.6,41517.2331303
  32.5353451,  34.9466235,0,134.2,41517.2331766
  32.5354349,  34.9466144,0,137.4,41517.2332346
  32.5355292,  34.9466242,0,140.7,41517.2333042
  32.5356369,  34.9466332,0,147.3,41517.2333620
  32.5357334,  34.9466094,0,147.3,41517.2334198
  32.5358213,  34.9465629,0,157.1,41517.2334894
  32.5358675,  34.9464616,0,150.6,41517.2335704
  32.5358551,  34.9463870,0,157.1,41517.2336744
  32.5358384,  34.9464943,0,160.4,41517.2337324
  32.5358486,  34.9465882,0,160.4,41517.2338135
  32.5358704,  34.9464830,0,163.7,41517.2338945
  32.5358618,  34.9464257,0,167.0,41517.2344501
  32.5358877,  34.9463098,0,173.5,41517.2345541
  32.5359019,  34.9461881,0,176.8,41517.2346466
  32.5359212,  34.9459709,0,180.1,41517.2347858
  32.5359389,  34.9457395,0,183.4,41517.2349245
  32.5359432,  34.9454553,0,186.7,41517.2350750
  32.5359273,  34.9453426,0,193.2,41517.2351330
  32.5359461,  34.9451606,0,196.5,41517.2352371
  32.5359525,  34.9450400,0,203.1,41517.2353065
  32.5359349,  34.9448914,0,203.1,41517.2353873
  32.5358892,  34.9447550,0,206.3,41517.2354569
  32.5357721,  34.9444410,0,209.6,41517.2356073
  32.5357391,  34.9443416,0,209.6,41517.2356536
  32.5356311,  34.9439363,0,222.7,41517.2358388
  32.5355994,  34.9438350,0,226.0,41517.2358966
  32.5356079,  34.9437261,0,229.3,41517.2359778
  32.5357076,  34.9437330,0,229.3,41517.2360472
  32.5358031,  34.9437335,0,232.6,41517.2361168
  32.5359013,  34.9437372,0,235.9,41517.2361862
  32.5361958,  34.9437046,0,249.0,41517.2363831
  32.5363345,  34.9436748,0,249.0,41517.2364640
  32.5364258,  34.9436283,0,239.1,41517.2365219
  32.5365201,  34.9435872,0,249.0,41517.2365797
  32.5366077,  34.9436178,0,255.5,41517.2366375
  32.5367057,  34.9437217,0,265.4,41517.2367070
  32.5367971,  34.9437675,0,265.4,41517.2367533
  32.5370946,  34.9439207,0,271.9,41517.2368921
  32.5372300,  34.9439405,0,275.2,41517.2369500
  32.5373409,  34.9439374,0,278.5,41517.2369963
  32.5374330,  34.9439110,0,281.8,41517.2370427
  32.5375235,  34.9438354,0,285.1,41517.2371006
  32.5376579,  34.9436897,0,285.1,41517.2372048
  32.5376996,  34.9435884,0,285.1,41517.2372627
  32.5377311,  34.9434778,0,288.3,41517.2373204
  32.5377285,  34.9433560,0,291.6,41517.2373784
  32.5377091,  34.9432383,0,294.9,41517.2374360
  32.5376655,  34.9431170,0,291.6,41517.2374938
  32.5376130,  34.9430259,0,291.6,41517.2375401
  32.5375428,  34.9429409,0,294.9,41517.2375864
  32.5374580,  34.9428661,0,291.6,41517.2376329
  32.5373623,  34.9427869,0,288.3,41517.2376792
  32.5373179,  34.9426958,0,288.3,41517.2377139
  32.5373340,  34.9425878,0,291.6,41517.2377579
  32.5373750,  34.9424647,0,291.6,41517.2378042
  32.5374153,  34.9423519,0,294.9,41517.2378504
  32.5374277,  34.9422363,0,288.3,41517.2378969
  32.5374741,  34.9419626,0,298.2,41517.2380241
  32.5375701,  34.9416509,0,311.3,41517.2382091
  32.5376451,  34.9414671,0,317.9,41517.2383482
  32.5376800,  34.9413569,0,314.6,41517.2384176
  32.5377363,  34.9412737,0,314.6,41517.2384753
  32.5377770,  34.9411632,0,311.3,41517.2385331
  32.5378501,  34.9410744,0,311.3,41517.2386040
  32.5379585,  34.9410604,0,317.9,41517.2386608
  32.5380593,  34.9410614,0,321.1,41517.2387070
  32.5382532,  34.9410920,0,327.7,41517.2387997
  32.5388686,  34.9412419,0,344.1,41517.2391005
  32.5389624,  34.9412481,0,347.4,41517.2391468
  32.5390592,  34.9411874,0,347.4,41517.2392047
  32.5391171,  34.9410925,0,344.1,41517.2392509
  32.5391251,  34.9409174,0,340.8,41517.2392856
  32.5391661,  34.9407875,0,337.5,41517.2393088
  32.5392438,  34.9407043,0,334.3,41517.2393319
  32.5393832,  34.9406191,0,340.8,41517.2393782
  32.5396171,  34.9404737,0,344.1,41517.2394941
  32.5397774,  34.9403635,0,344.1,41517.2395519
  32.5398888,  34.9402877,0,344.1,41517.2395751
  32.5399789,  34.9402374,0,344.1,41517.2395982
  32.5400761,  34.9402037,0,340.8,41517.2396212
  32.5405006,  34.9400889,0,350.7,41517.2397486
  32.5408971,  34.9399266,0,360.5,41517.2399222
  32.5409886,  34.9399205,0,363.8,41517.2399572
  32.5412168,  34.9398978,0,367.1,41517.2400382
  32.5412912,  34.9398379,0,363.8,41517.2400727
  32.5413188,  34.9397351,0,367.1,41517.2401072
  32.5413118,  34.9396090,0,360.5,41517.2401422
  32.5413261,  34.9394910,0,357.2,41517.2401767
  32.5413844,  34.9391689,0,360.5,41517.2402926
  32.5414353,  34.9390350,0,363.8,41517.2403621
  32.5415889,  34.9387304,0,353.9,41517.2405124
  32.5416278,  34.9386143,0,357.2,41517.2405702
  32.5416800,  34.9385189,0,360.5,41517.2406285
  32.5417136,  34.9384035,0,363.8,41517.2406977
  32.5416803,  34.9382909,0,373.6,41517.2407790
  32.5416361,  34.9381871,0,380.2,41517.2408480
  32.5415211,  34.9378878,0,383.5,41517.2410336
  32.5414917,  34.9377653,0,386.7,41517.2411028
  32.5415016,  34.9376425,0,393.3,41517.2411722
  32.5415296,  34.9375373,0,396.6,41517.2412301
  32.5415961,  34.9374579,0,399.9,41517.2412995
  32.5416154,  34.9373396,0,403.1,41517.2413690
  32.5417220,  34.9369828,0,409.7,41517.2415542
  32.5417758,  34.9368835,0,413.0,41517.2416005
  32.5418710,  34.9367352,0,416.3,41517.2416699
  32.5418785,  34.9366052,0,409.7,41517.2417162
  32.5418893,  34.9364823,0,416.3,41517.2417625
  32.5419394,  34.9363799,0,416.3,41517.2418088
  32.5420323,  34.9362508,0,413.0,41517.2418784
  32.5420894,  34.9361679,0,413.0,41517.2419246
  32.5421137,  34.9360631,0,419.5,41517.2419709
  32.5421116,  34.9359503,0,422.8,41517.2420170
  32.5420797,  34.9358510,0,422.8,41517.2420635
  32.5420008,  34.9357881,0,422.8,41517.2421213
  32.5419050,  34.9357621,0,422.8,41517.2422024
  32.5418113,  34.9357464,0,429.4,41517.2422834
  32.5417893,  34.9357370,0,426.1,41517.2438002
  32.5416421,  34.9357288,0,422.8,41517.2438347
  32.5410983,  34.9356491,0,409.7,41517.2439159
  32.5402424,  34.9354086,0,396.6,41517.2440546
  32.5402620,  34.9353837,0,393.3,41517.2444248
  32.5402929,  34.9352865,0,390.0,41517.2445982
  32.5403119,  34.9352048,0,386.7,41517.2447024
  32.5402995,  34.9350988,0,383.5,41517.2448066
  32.5402856,  34.9350761,0,380.2,41517.2459871
  32.5402668,  34.9350475,0,367.1,41517.2464037
  32.5402710,  34.9350152,0,376.9,41517.2471448
  32.5402590,  34.9350103,0,370.3,41517.2484178
  32.5402556,  34.9349937,1,360.5,41517.2496214
  32.5402842,  34.9350474,0,367.1,41517.2499570
  32.5402674,  34.9350466,0,367.1,41517.2516236
  32.5402681,  34.9350497,0,370.3,41517.2529896
  32.5402738,  34.9350691,0,367.1,41517.2550384
  32.5402839,  34.9350929,0,376.9,41517.2575625
  32.5403058,  34.9351890,0,383.5,41517.2578854
  32.5402962,  34.9352793,0,386.7,41517.2580705
  32.5402583,  34.9353507,0,393.3,41517.2581862
  32.5402726,  34.9354000,0,399.9,41517.2592055
  32.5404401,  34.9354619,0,399.9,41517.2593211
  32.5409629,  34.9356129,0,406.4,41517.2596099
  32.5410520,  34.9356391,0,406.4,41517.2596678
  32.5412232,  34.9356767,0,406.4,41517.2597717
  32.5414131,  34.9356999,0,403.1,41517.2598874
  32.5416611,  34.9357386,0,416.3,41517.2600377
  32.5417678,  34.9357346,0,416.3,41517.2601072
  32.5418703,  34.9357482,0,419.5,41517.2601897
  32.5419659,  34.9357737,0,426.1,41517.2602696
  32.5420698,  34.9358112,0,426.1,41517.2603738
  32.5421453,  34.9357896,0,426.1,41517.2610531
  32.5422375,  34.9357713,0,429.4,41517.2611221
  32.5423260,  34.9357704,0,429.4,41517.2612032
  32.5424289,  34.9358136,0,429.4,41517.2612736
  32.5425043,  34.9358188,0,432.7,41517.2616893
  32.5426034,  34.9358088,0,432.7,41517.2617362
  32.5427044,  34.9358027,0,435.9,41517.2617828
  32.5428147,  34.9358451,0,439.2,41517.2618628
  32.5429050,  34.9358346,0,442.5,41517.2620133
  32.5430155,  34.9358281,0,445.8,41517.2620713
  32.5430755,  34.9358126,0,445.8,41517.2622911
  32.5431851,  34.9358270,0,445.8,41517.2623496
  32.5432717,  34.9358733,0,445.8,41517.2623954
  32.5433328,  34.9357852,0,452.3,41517.2624647
  32.5433730,  34.9356857,0,455.6,41517.2625457
  32.5434271,  34.9355857,0,458.9,41517.2626269
  32.5434001,  34.9354948,0,458.9,41517.2627078
  32.5433471,  34.9354162,0,455.6,41517.2627661
  32.5433123,  34.9353234,0,455.6,41517.2628235
  32.5433462,  34.9353566,0,455.6,41517.2628814
  32.5433344,  34.9353810,0,449.1,41517.2629508
  32.5433288,  34.9353484,0,452.3,41517.2630203
  32.5433703,  34.9354608,0,458.9,41517.2630781
  32.5434450,  34.9355161,0,458.9,41517.2631360
  32.5435133,  34.9354765,0,462.2,41517.2631937
  32.5435002,  34.9353696,0,462.2,41517.2632400
  32.5435213,  34.9352572,0,458.9,41517.2632982
  32.5434864,  34.9352835,0,452.3,41517.2660179
  32.5435160,  34.9352875,0,445.8,41517.2662725
  32.5434791,  34.9353557,0,455.6,41517.2663419
  32.5434964,  34.9354713,0,455.6,41517.2663882
  32.5435450,  34.9355920,0,462.2,41517.2664461
  32.5435681,  34.9357102,0,458.9,41517.2665040
  32.5435760,  34.9358429,0,452.3,41517.2666542
  32.5436173,  34.9359611,0,455.6,41517.2667008
  32.5437009,  34.9360109,0,455.6,41517.2667355
  32.5437881,  34.9360564,0,452.3,41517.2667818
  32.5440021,  34.9361295,0,455.6,41517.2669091
  32.5440887,  34.9361022,0,458.9,41517.2669668
  32.5441808,  34.9360660,0,462.2,41517.2670245
  32.5442741,  34.9360723,0,465.5,41517.2670826
  32.5443390,  34.9359973,0,465.5,41517.2671520
  32.5444044,  34.9359435,0,465.5,41517.2672334
  32.5444155,  34.9358278,0,465.5,41517.2673028
  32.5444424,  34.9356438,0,465.5,41517.2673951
  32.5445160,  34.9355962,0,462.2,41517.2675570
  32.5445602,  34.9354985,0,458.9,41517.2676496
  32.5446270,  34.9354400,0,455.6,41517.2677073
  32.5447124,  34.9354017,0,452.3,41517.2677657
  32.5447779,  34.9354106,0,449.0,41517.2679041
  32.5448775,  34.9353509,0,442.5,41517.2679856
  32.5449665,  34.9353662,0,439.2,41517.2680667
  32.5451554,  34.9353014,0,442.5,41517.2694438
  32.5452551,  34.9352950,0,442.5,41517.2694785
  32.5453358,  34.9352527,0,439.2,41517.2695138
  32.5454179,  34.9353121,0,442.5,41517.2695480
  32.5454873,  34.9353762,0,439.2,41517.2695831
  32.5455727,  34.9354651,0,442.5,41517.2696290
  32.5456922,  34.9354790,0,445.8,41517.2696753
  32.5457405,  34.9354570,0,452.3,41517.2698257
  32.5458238,  34.9354771,0,455.6,41517.2699875
  32.5459038,  34.9355354,0,455.6,41517.2700571
  32.5459502,  34.9356297,0,455.6,41517.2701151
  32.5459898,  34.9356429,0,455.6,41517.2703698
  32.5460901,  34.9355993,0,452.3,41517.2705201
  32.5461709,  34.9355565,0,452.3,41517.2706010
  32.5462736,  34.9356037,0,455.6,41517.2706475
  32.5463536,  34.9355710,0,449.0,41517.2706939
  32.5463600,  34.9355508,0,442.5,41517.2707873
  32.5463993,  34.9355280,0,452.3,41517.2720016
  32.5464776,  34.9355044,0,445.8,41517.2724644
  32.5465600,  34.9355253,0,458.9,41517.2725691
  32.5467477,  34.9355275,0,465.4,41517.2727076
  32.5468604,  34.9355464,0,455.6,41517.2727653
  32.5470600,  34.9355912,0,455.6,41517.2728698
  32.5471024,  34.9356977,0,462.2,41517.2729274
  32.5471040,  34.9358115,0,462.2,41517.2729853
  32.5471713,  34.9358309,0,445.7,41517.2735988
  32.5472267,  34.9359158,0,442.5,41517.2736452
  32.5472219,  34.9360384,0,432.6,41517.2737030
  32.5473088,  34.9360401,0,432.6,41517.2738650
  32.5473975,  34.9360751,0,439.2,41517.2739345
  32.5474582,  34.9361245,0,429.3,41517.2742701
  32.5475040,  34.9362832,0,429.3,41517.2743627
  32.5476158,  34.9362964,0,426.1,41517.2744667
  32.5477103,  34.9362941,0,426.1,41517.2745478
  32.5478142,  34.9362589,0,429.3,41517.2746172
  32.5478668,  34.9363203,0,426.1,41517.2747099
  32.5479404,  34.9363589,0,422.8,41517.2748604
  32.5480345,  34.9364006,0,419.5,41517.2750688
  32.5481265,  34.9363853,0,412.9,41517.2751382
  32.5481769,  34.9363117,0,412.9,41517.2754737
  32.5482473,  34.9362415,0,403.1,41517.2755901
  32.5483261,  34.9361978,0,412.9,41517.2757863
  32.5484085,  34.9361419,0,406.4,41517.2759030
  32.5484786,  34.9361222,0,393.2,41517.2760873
  32.5485434,  34.9360451,0,390.0,41517.2762493
  32.5486694,  34.9359761,0,370.3,41517.2764808
  32.5487791,  34.9359696,0,367.0,41517.2765386
  32.5488718,  34.9359483,0,367.0,41517.2765850
  32.5489159,  34.9358716,0,357.1,41517.2766889
  32.5490018,  34.9358992,0,357.1,41517.2767704
  32.5490523,  34.9359294,0,353.9,41517.2769442
  32.5490823,  34.9359688,0,340.7,41517.2781360
  32.5491404,  34.9360537,0,340.7,41517.2782167
  32.5491855,  34.9361093,0,353.9,41517.2794205
  32.5492359,  34.9361948,0,347.3,41517.2797213
  32.5493155,  34.9363950,0,340.7,41517.2798139
  32.5493589,  34.9364559,0,327.6,41517.2799297
  32.5494183,  34.9365167,0,317.8,41517.2802196
  32.5494404,  34.9366451,0,311.2,41517.2802540
  32.5494978,  34.9367121,0,307.9,41517.2803002
  32.5495781,  34.9366626,0,304.7,41517.2803580
  32.5496477,  34.9366459,0,307.9,41517.2807747
  32.5497378,  34.9365974,0,304.7,41517.2808210
  32.5497991,  34.9365553,0,298.1,41517.2808903
  32.5498741,  34.9365826,0,291.5,41517.2811797
  32.5499684,  34.9365158,0,285.0,41517.2812262
  32.5500293,  34.9364194,0,288.2,41517.2812723
  32.5500915,  34.9363439,0,281.7,41517.2813186
  32.5501818,  34.9363231,0,281.7,41517.2813762
  32.5502727,  34.9363426,0,275.1,41517.2814459
  32.5503030,  34.9364589,0,268.6,41517.2815037
  32.5502737,  34.9365703,0,262.0,41517.2815617
  32.5503026,  34.9366815,0,262.0,41517.2816196
  32.5503665,  34.9367576,0,262.0,41517.2816657
  32.5504134,  34.9368206,0,252.2,41517.2820710
  32.5504738,  34.9369098,0,252.2,41517.2823716
  32.5505287,  34.9370556,0,252.2,41517.2824297
  32.5505726,  34.9370415,0,252.2,41517.2825339
  32.5506669,  34.9369810,0,252.1,41517.2825916
  32.5507479,  34.9369318,0,252.1,41517.2826379
  32.5507974,  34.9369859,0,258.7,41517.2826959
  32.5508032,  34.9370279,0,258.7,41517.2847584
  32.5507833,  34.9371325,0,265.3,41517.2848141
  32.5507901,  34.9372572,0,268.6,41517.2848727
  32.5508173,  34.9374945,0,271.8,41517.2849880
  32.5508363,  34.9376152,0,275.1,41517.2850700
  32.5508580,  34.9377347,0,275.1,41517.2851395
  32.5508955,  34.9378401,0,278.4,41517.2851869
  32.5509453,  34.9379683,0,281.7,41517.2852326
  32.5510008,  34.9380783,0,285.0,41517.2852798
  32.5510571,  34.9381661,0,291.5,41517.2853348
  32.5511343,  34.9382478,0,294.8,41517.2854041
  32.5512411,  34.9383466,0,294.8,41517.2855083
  32.5512566,  34.9384629,0,298.1,41517.2855778
  32.5512344,  34.9385747,0,304.6,41517.2856356
  32.5512150,  34.9387018,0,294.8,41517.2857079
  32.5510685,  34.9390261,0,294.8,41517.2858787
  32.5509560,  34.9392060,0,288.2,41517.2859849
  32.5507889,  34.9394319,0,291.5,41517.2861105
  32.5506021,  34.9397658,0,281.7,41517.2862722
  32.5505556,  34.9398706,0,271.8,41517.2863186
  32.5504947,  34.9399660,0,275.1,41517.2863648
  32.5504350,  34.9400585,0,285.0,41517.2864114
  32.5503696,  34.9401587,0,301.4,41517.2864580
  32.5503262,  34.9402565,0,304.7,41517.2865156
  32.5502656,  34.9403548,0,321.1,41517.2865734
  32.5502150,  34.9404575,0,324.3,41517.2866205
  32.5501855,  34.9405780,0,324.3,41517.2866698
  32.5501576,  34.9407487,0,340.7,41517.2867471
  32.5501713,  34.9408033,0,330.9,41517.2868555
  32.5501317,  34.9408993,0,337.5,41517.2868984
  32.5501145,  34.9410286,0,337.5,41517.2869556
  32.5501022,  34.9411601,0,340.7,41517.2870132
  32.5500910,  34.9412832,0,337.5,41517.2870718
  32.5500663,  34.9414510,0,347.3,41517.2871522
  32.5499240,  34.9418006,0,353.9,41517.2873141
  32.5499481,  34.9419052,0,347.3,41517.2873495
  32.5500420,  34.9419575,0,347.3,41517.2873837
  32.5501291,  34.9420014,0,347.3,41517.2874194
  32.5501726,  34.9421021,0,344.0,41517.2874762
  32.5501496,  34.9422276,0,347.3,41517.2875225
  32.5501532,  34.9423579,0,353.9,41517.2875692
  32.5501415,  34.9424773,0,353.9,41517.2876388
  32.5502149,  34.9425602,0,344.0,41517.2877076
  32.5503149,  34.9426275,0,357.2,41517.2877660
  32.5506530,  34.9427892,0,357.1,41517.2879858
  32.5510647,  34.9430555,0,363.7,41517.2882632
  32.5511513,  34.9431619,0,360.4,41517.2883327
  32.5512224,  34.9432580,0,360.4,41517.2884021
  32.5512854,  34.9433677,0,367.0,41517.2884835
  32.5513659,  34.9434534,0,376.8,41517.2885527
  32.5514523,  34.9435196,0,380.1,41517.2886110
  32.5515978,  34.9436045,0,380.1,41517.2887031
  32.5517041,  34.9437163,0,383.4,41517.2888074
  32.5517651,  34.9438063,0,383.4,41517.2888651
  32.5518130,  34.9439151,0,383.4,41517.2889231
  32.5518350,  34.9439402,0,393.2,41517.2890734
  32.5518955,  34.9440273,0,393.2,41517.2891312
  32.5519633,  34.9441664,0,393.2,41517.2892008
  32.5520425,  34.9443288,0,396.5,41517.2892817
  32.5521013,  34.9444344,0,396.5,41517.2893512
  32.5521316,  34.9445365,0,403.1,41517.2893975
  32.5521134,  34.9446467,0,406.4,41517.2894794
  32.5521191,  34.9447000,0,396.5,41517.2896637
  32.5521985,  34.9446281,0,399.8,41517.2897795
  32.5521721,  34.9447087,0,403.1,41517.2898720
  32.5521507,  34.9447172,0,403.1,41517.2900919
  32.5521009,  34.9446724,0,422.8,41517.2941783
  32.5521185,  34.9445586,0,416.2,41517.2942355
  32.5521008,  34.9444482,0,409.6,41517.2942824
  32.5520631,  34.9443505,0,412.9,41517.2943165
  32.5516888,  34.9436891,0,399.8,41517.2945017
  32.5515714,  34.9436935,0,390.0,41517.2945366
  32.5515484,  34.9438408,0,390.0,41517.2945601
  32.5515162,  34.9439788,0,386.7,41517.2945944
  32.5514268,  34.9442377,0,390.0,41517.2946524
  32.5513585,  34.9444534,0,390.0,41517.2946984
  32.5512517,  34.9448395,0,393.2,41517.2948026
  32.5511035,  34.9451485,0,393.2,41517.2949069
  32.5510559,  34.9453428,0,390.0,41517.2949646
  32.5509972,  34.9455658,0,396.5,41517.2950343
  32.5507181,  34.9464712,0,396.5,41517.2953467
  32.5507114,  34.9465919,0,396.5,41517.2953814
  32.5507353,  34.9467032,0,396.5,41517.2954276
  32.5507621,  34.9467531,0,393.2,41517.2964467
  32.5508239,  34.9469214,0,396.5,41517.2965271
  32.5508574,  34.9472322,0,386.7,41517.2966196
  32.5508110,  34.9480127,0,367.0,41517.2968166
  32.5507277,  34.9486189,0,353.9,41517.2970017
  32.5507471,  34.9487575,0,357.2,41517.2970364
  32.5507583,  34.9488737,0,353.9,41517.2970711
  32.5507404,  34.9490118,0,350.6,41517.2971173
  32.5506822,  34.9490961,0,350.6,41517.2971521
  32.5504405,  34.9493474,0,334.2,41517.2972679
  32.5503590,  34.9494828,0,330.9,41517.2973140
  32.5502594,  34.9496536,0,327.6,41517.2973604
  32.5501707,  34.9496737,0,324.4,41517.2973835
  32.5500284,  34.9497012,0,321.1,41517.2974187
  32.5497065,  34.9498270,0,314.5,41517.2974879
  32.5495909,  34.9498108,0,311.2,41517.2975114
  32.5494634,  34.9497814,0,304.7,41517.2975455
  32.5493754,  34.9498016,0,298.1,41517.2976041
  32.5493657,  34.9497244,0,291.6,41517.2981938
  32.5493246,  34.9496647,0,285.0,41517.2982978
  32.5492664,  34.9497217,0,288.3,41517.2984252
  32.5492034,  34.9498297,0,281.7,41517.2984712
  32.5491126,  34.9498783,0,281.7,41517.2985291
  32.5490458,  34.9499098,0,285.0,41517.2986682
  32.5490037,  34.9499835,0,268.6,41517.2988881
  32.5490724,  34.9500437,0,258.7,41517.2990037
  32.5491317,  34.9501220,0,265.3,41517.2991080
  32.5492200,  34.9501692,0,275.2,41517.2992469
  32.5492854,  34.9502583,0,271.9,41517.2992930
  32.5493314,  34.9503680,0,278.4,41517.2993280
  32.5493807,  34.9504959,0,278.4,41517.2993975
  32.5493720,  34.9505627,0,275.1,41517.2995246
  32.5493958,  34.9505568,0,262.0,41517.3083324
  32.5493851,  34.9505628,0,265.3,41517.3092007
  32.5494275,  34.9505735,0,265.3,41517.3098369
  32.5494291,  34.9506816,0,265.3,41517.3099299
  32.5494456,  34.9507866,0,262.0,41517.3100107
  32.5494605,  34.9509618,0,262.0,41517.3101147
  32.5495207,  34.9510413,0,258.7,41517.3101843
  32.5495747,  34.9511344,0,252.2,41517.3102536
  32.5495721,  34.9512450,0,252.2,41517.3102883
  32.5496254,  34.9513639,0,252.2,41517.3103348
  32.5497024,  34.9514144,0,255.5,41517.3103925
  32.5496445,  34.9515197,0,252.2,41517.3104514
  32.5496025,  34.9516511,0,242.3,41517.3104966
  32.5495886,  34.9518379,0,232.5,41517.3105430
  32.5496193,  34.9519554,0,232.5,41517.3105780
  32.5496792,  34.9520796,0,229.2,41517.3106588
  32.5497734,  34.9520967,0,235.8,41517.3107282
  32.5497675,  34.9520614,0,232.5,41517.3110869
  32.5496939,  34.9520805,0,235.8,41517.3112143
  32.5497625,  34.9520242,0,239.1,41517.3113067
  32.5498360,  34.9519660,0,245.6,41517.3113995
  32.5498386,  34.9519235,0,242.3,41517.3114808
  32.5499379,  34.9519454,0,239.1,41517.3115267
  32.5500285,  34.9518721,0,239.1,41517.3115731
  32.5500798,  34.9518114,0,245.6,41517.3116773
  32.5501472,  34.9517623,0,242.3,41517.3118857
  32.5501060,  34.9518190,0,265.3,41517.3131009
  32.5500334,  34.9518525,0,252.2,41517.3133209
  32.5499067,  34.9519909,0,258.7,41517.3134254
  32.5497029,  34.9521012,0,255.5,41517.3135878
  32.5495967,  34.9521407,0,252.2,41517.3136567
  32.5494392,  34.9522570,0,245.6,41517.3137264
  32.5494710,  34.9523492,0,239.1,41517.3137961
  32.5495357,  34.9524288,0,232.5,41517.3138418
  32.5495640,  34.9525138,0,232.5,41517.3144558
  32.5495639,  34.9526268,0,232.5,41517.3144898
  32.5495461,  34.9527587,0,222.7,41517.3145364
  32.5494789,  34.9528475,0,219.4,41517.3145708
  32.5493372,  34.9529875,0,206.3,41517.3146406
  32.5493948,  34.9530778,0,206.3,41517.3146983
  32.5494401,  34.9531348,0,209.5,41517.3148256
  32.5493993,  34.9532369,0,209.5,41517.3148950
  32.5494276,  34.9533533,0,209.5,41517.3149530
  32.5494246,  34.9534627,0,209.5,41517.3149876
  32.5494107,  34.9536064,0,209.5,41517.3150224
  32.5493293,  34.9536888,0,206.3,41517.3150571
  32.5491874,  34.9537124,0,199.7,41517.3150918
  32.5490711,  34.9536950,0,196.4,41517.3151149
  32.5489600,  34.9536965,0,193.1,41517.3151381
  32.5488454,  34.9537301,0,189.9,41517.3151612
  32.5487402,  34.9537570,0,186.6,41517.3151844
  32.5486364,  34.9537576,0,186.6,41517.3152075
  32.5484626,  34.9537474,0,186.6,41517.3152423
  32.5482941,  34.9537205,0,186.6,41517.3152770
  32.5481936,  34.9536904,0,183.3,41517.3153002
  32.5479755,  34.9536413,0,176.7,41517.3153580
  32.5479251,  34.9536672,0,170.2,41517.3158094
  32.5478734,  34.9537533,0,170.2,41517.3160300
  32.5477777,  34.9539185,0,166.9,41517.3160871
  32.5477278,  34.9540670,0,166.9,41517.3161219
  32.5477207,  34.9542006,0,166.9,41517.3161450
  32.5476777,  34.9543113,0,163.6,41517.3161681
  32.5476425,  34.9544331,0,163.6,41517.3161919
  32.5476227,  34.9545455,0,163.6,41517.3162145
  32.5475794,  34.9546784,0,157.1,41517.3162955
  32.5475384,  34.9547862,0,150.5,41517.3163533
  32.5474948,  34.9548975,0,147.2,41517.3164344
  32.5474751,  34.9550223,0,150.5,41517.3165038
  32.5475497,  34.9550515,0,150.5,41517.3165508
  32.5474774,  34.9549906,0,150.5,41517.3166084
  32.5474812,  34.9549085,0,150.5,41517.3166549
  32.5475445,  34.9550228,0,150.5,41517.3167007
  32.5476267,  34.9550802,0,153.8,41517.3167359
  32.5477585,  34.9551449,0,153.8,41517.3167933
  32.5478051,  34.9552526,0,157.1,41517.3168400
  32.5477739,  34.9553876,0,157.1,41517.3168862
  32.5476852,  34.9554999,0,157.1,41517.3169212
  32.5475901,  34.9556027,0,153.8,41517.3169556
  32.5473392,  34.9558066,0,140.7,41517.3170025
  32.5471093,  34.9559702,0,134.1,41517.3170478
  32.5467133,  34.9564027,0,117.7,41517.3171409
  32.5466333,  34.9564829,0,121.0,41517.3171751
  32.5464661,  34.9567107,0,121.0,41517.3174530
  32.5458400,  34.9574280,0,111.1,41517.3176268
  32.5456347,  34.9575874,0,104.6,41517.3176729
  32.5454108,  34.9577551,0,104.6,41517.3177192
  32.5450169,  34.9582567,0,91.5,41517.3178233
  32.5449699,  34.9583925,0,88.2,41517.3178464
  32.5450307,  34.9585220,0,91.5,41517.3178696
  32.5452220,  34.9588569,0,84.9,41517.3179511
  32.5453219,  34.9589958,0,84.9,41517.3179971
  32.5453849,  34.9591077,0,84.9,41517.3180325
  32.5454287,  34.9592067,0,84.9,41517.3181014
  32.5454749,  34.9593013,0,88.2,41517.3181589
  32.5455397,  34.9593815,0,84.9,41517.3181940
  32.5457347,  34.9596022,0,84.9,41517.3182747
  32.5458420,  34.9597755,0,84.9,41517.3183328
  32.5459362,  34.9598372,0,91.5,41517.3183673
  32.5460269,  34.9599111,0,91.5,41517.3184027
  32.5461365,  34.9600017,0,91.5,41517.3184483
  32.5462407,  34.9599896,0,91.5,41517.3184841
  32.5463779,  34.9599813,0,94.7,41517.3185293
  32.5464757,  34.9600048,0,98.0,41517.3185643
  32.5465591,  34.9600559,0,101.3,41517.3185992
  32.5467647,  34.9602353,0,107.9,41517.3187144
  32.5468428,  34.9603157,0,107.9,41517.3187616
  32.5474493,  34.9607801,0,111.1,41517.3190963
  32.5477163,  34.9609559,0,114.4,41517.3191889
  32.5478703,  34.9610737,0,114.4,41517.3192352
  32.5479462,  34.9611498,0,114.4,41517.3192699
  32.5479731,  34.9612567,0,114.4,41517.3193162
  32.5478776,  34.9613471,0,117.7,41517.3193626
  32.5476812,  34.9615504,0,117.7,41517.3194325
  32.5474051,  34.9617953,0,117.7,41517.3195251
  32.5472956,  34.9618884,0,114.4,41517.3195595
  32.5471908,  34.9619935,0,117.7,41517.3195947
  32.5463763,  34.9628996,0,117.7,41517.3199183
  32.5463196,  34.9630055,0,117.7,41517.3199414
  32.5462540,  34.9631813,0,114.4,41517.3199769
  32.5460721,  34.9638761,0,117.7,41517.3200932
  32.5460341,  34.9640099,0,114.4,41517.3201150
  32.5459923,  34.9641401,0,111.2,41517.3201386
  32.5456438,  34.9652313,0,101.3,41517.3203116
  32.5454622,  34.9654988,0,98.0,41517.3203579
  32.5443156,  34.9669018,0,84.9,41517.3206126
  32.5440557,  34.9673015,0,81.6,41517.3207052
  32.5438532,  34.9675326,0,78.4,41517.3207867
  32.5437606,  34.9676205,0,78.4,41517.3208210
  32.5434108,  34.9680867,0,81.7,41517.3209827
  32.5432809,  34.9682110,0,84.9,41517.3210523
  32.5432073,  34.9682906,0,88.2,41517.3210988
  32.5431352,  34.9683914,0,88.2,41517.3211452
  32.5430689,  34.9684885,0,84.9,41517.3211921
  32.5414618,  34.9704001,0,94.8,41517.3219113
  32.5398819,  34.9723156,0,111.2,41517.3225685
  32.5383693,  34.9741823,0,121.1,41517.3232176
  32.5365486,  34.9757591,0,111.2,41517.3237731
  32.5362051,  34.9760502,0,114.5,41517.3238771
  32.5351788,  34.9766067,0,117.8,41517.3241773
  32.5346886,  34.9770102,0,111.3,41517.3243394
  32.5345341,  34.9772046,0,108.0,41517.3243972
  32.5341026,  34.9778367,0,101.4,41517.3245129
  32.5336209,  34.9784296,0,98.1,41517.3246180
  32.5334162,  34.9786535,0,94.9,41517.3246634
  32.5331018,  34.9790309,0,94.9,41517.3247446
  32.5329717,  34.9791872,0,91.6,41517.3247800
  32.5328807,  34.9792843,0,91.6,41517.3248030
  32.5326820,  34.9794226,0,91.6,41517.3248494
  32.5323926,  34.9795599,0,91.6,41517.3249180
  32.5320329,  34.9796737,0,94.9,41517.3250111
  32.5311166,  34.9800270,0,101.4,41517.3254162
  32.5311069,  34.9800884,0,98.2,41517.3255206
  32.5311424,  34.9800342,0,94.9,41517.3255897
  32.5310865,  34.9799964,0,98.2,41517.3259830
  32.5302509,  34.9290661,1,32.5,41517.3424374
  32.5304591,  34.9290490,0,32.5,41517.3424486
  32.5327757,  34.9289116,0,48.8,41517.3425765
  32.5335896,  34.9288959,0,45.6,41517.3426347
  32.5336885,  34.9288810,0,45.6,41517.3426463
  32.5338198,  34.9288874,0,42.3,41517.3426691
  32.5339244,  34.9288681,0,42.3,41517.3427035
